NORAD_CAT_ID,OBJECT_NAME,OBJECT_TYPE,EPOCH,MEAN_MOTION,ECCENTRICITY,INCLINATION,RA_OF_ASC_NODE,ARG_OF_PERICENTER,MEAN_ANOMALY,BSTAR,MEAN_MOTION_DOT,MEAN_MOTION_DDOT,TLE_LINE0,TLE_LINE1,TLE_LINE2,SEMIMAJOR_AXIS,PERIOD,APOGEE,PERIGEE,DECAYED
55291.0,STARLINK-5327,PAYLOAD,2023-06-26 03:35:09,14.98659133,0.0003337,69.9986,354.4592,267.5633,92.5144,-0.0048804,-0.0005834,0.0,0 STARLINK-5327,1 55291U 23010Y   23177.14941962 -.00058340  00000-0 -48804-2 0  9992,2 55291  69.9986 354.4592 0003337 267.5633  92.5144 14.98659133 25035,6949.175,96.086,573.359,568.721,0.0
55291.0,STARLINK-5327,PAYLOAD,2023-06-26 18:00:17,14.98522369,0.0003481,69.9985,352.9442,273.181,86.8951,-0.0032513,-0.00038867,0.0,0 STARLINK-5327,1 55291U 23010Y   23177.75019682 -.00038867  00000-0 -32513-2 0  9996,2 55291  69.9985 352.9442 0003481 273.1810  86.8951 14.98522369 25123,6949.598,96.095,573.882,569.044,0.0
55291.0,STARLINK-5327,PAYLOAD,2023-06-27 06:00:00,14.98271872,0.0003173,70.0008,351.6839,266.3297,268.8697,0.0022482,0.00026795,0.0,0 STARLINK-5327,1 55291U 23010Y   23178.25001157  .00026795  00000-0  22482-2 0  9999,2 55291  70.0008 351.6839 0003173 266.3297 268.8697 14.98271872 25207,6950.373,96.111,574.443,570.032,0.0
55291.0,STARLINK-5327,PAYLOAD,2023-06-28 10:03:41,14.98320405,0.0003355,69.9986,348.7365,270.3348,89.7426,-5.8054e-05,-7.86e-06,0.0,0 STARLINK-5327,1 55291U 23010Y   23179.41923255 -.00000786  00000-0 -58054-4 0  9990,2 55291  69.9986 348.7365 0003355 270.3348  89.7426 14.98320405 25379,6950.223,96.108,574.419,569.756,0.0
55291.0,STARLINK-5327,PAYLOAD,2023-06-28 18:04:21,14.98326748,0.0003215,69.9988,347.8942,268.3069,91.7722,0.00011626,1.294e-05,0.0,0 STARLINK-5327,1 55291U 23010Y   23179.75302585  .00001294  00000-0  11626-3 0  9990,2 55291  69.9988 347.8942 0003215 268.3069  91.7722 14.98326748 25428,6950.203,96.107,574.302,569.833,0.0
55291.0,STARLINK-5327,PAYLOAD,2023-06-29 18:06:21,14.98333573,0.0003148,69.9988,345.3688,267.2541,92.8258,0.00032554,3.794e-05,0.0,0 STARLINK-5327,1 55291U 23010Y   23180.75441567  .00003794  00000-0  32554-3 0  9996,2 55291  69.9988 345.3688 0003148 267.2541  92.8258 14.98333573 25572,6950.182,96.107,574.235,569.859,0.0
55291.0,STARLINK-5327,PAYLOAD,2023-06-30 19:44:30,14.98342267,0.0002995,69.9994,342.6761,264.4121,95.6697,3.3809e-05,3.11e-06,0.0,0 STARLINK-5327,1 55291U 23010Y   23181.82257150  .00000311  00000-0  33809-4 0  9995,2 55291  69.9994 342.6761 0002995 264.4121  95.6697 14.98342267 25739,6950.155,96.106,574.102,569.938,0.0
55291.0,STARLINK-5327,PAYLOAD,2023-07-01 18:10:23,14.98333786,0.0002916,69.9997,340.3193,267.236,92.8465,-0.00018926,-2.351e-05,0.0,0 STARLINK-5327,1 55291U 23010Y   23182.75721716 -.00002351  00000-0 -18926-3 0  9992,2 55291  69.9997 340.3193 0002916 267.2360  92.8465 14.98333786 25878,6950.181,96.107,574.073,570.02,0.0
55291.0,STARLINK-5327,PAYLOAD,2023-07-02 15:00:07,14.98335806,0.0003001,69.9996,338.1311,268.6001,91.4814,-5.0977e-05,-7.01e-06,0.0,0 STARLINK-5327,1 55291U 23010Y   23183.62508830 -.00000701  00000-0 -50977-4 0  9999,2 55291  69.9996 338.1311 0003001 268.6001  91.4814 14.98335806 26001,6950.175,96.107,574.126,569.954,0.0
55291.0,STARLINK-5327,PAYLOAD,2023-07-03 16:38:16,14.98331767,0.0003165,69.9993,335.4372,269.7719,90.3077,7.1141e-05,7.56e-06,0.0,0 STARLINK-5327,1 55291U 23010Y   23184.69324483  .00000756  00000-0  71141-4 0  9991,2 55291  69.9993 335.4372 0003165 269.7719  90.3077 14.98331767 26162,6950.187,96.107,574.252,569.853,0.0
55291.0,STARLINK-5327,PAYLOAD,2023-07-04 16:40:17,14.98330518,0.000312,69.9994,332.9118,269.3683,90.7119,-4.04e-05,-5.75e-06,0.0,0 STARLINK-5327,1 55291U 23010Y   23185.69464810 -.00000575  00000-0 -40400-4 0  9996,2 55291  69.9994 332.9118 0003120 269.3683  90.7119 14.98330518 26311,6950.191,96.107,574.225,569.888,0.0
55291.0,STARLINK-5327,PAYLOAD,2023-07-05 16:42:18,14.98330862,0.0003078,69.9997,330.3874,268.8383,91.2423,-2.3911e-05,-3.78e-06,0.0,0 STARLINK-5327,1 55291U 23010Y   23186.69604684 -.00000378  00000-0 -23911-4 0  9991,2 55291  69.9997 330.3874 0003078 268.8383  91.2423 14.98330862 26460,6950.19,96.107,574.194,569.916,0.0
55291.0,STARLINK-5327,PAYLOAD,2023-07-07 02:21:07,14.98331307,0.0003176,69.9996,326.8525,267.2188,92.8607,2.4946e-05,2.05e-06,0.0,0 STARLINK-5327,1 55291U 23010Y   23188.09800428  .00000205  00000-0  24946-4 0  9997,2 55291  69.9996 326.8525 0003176 267.2188  92.8607 14.98331307 26676,6950.189,96.107,574.261,569.846,0.0
55291.0,STARLINK-5327,PAYLOAD,2023-07-08 02:23:08,14.98331144,0.0003138,69.9996,324.3271,270.2705,89.8094,2.5163e-05,2.07e-06,0.0,0 STARLINK-5327,1 55291U 23010Y   23189.09940324  .00000207  00000-0  25163-4 0  9992,2 55291  69.9996 324.3271 0003138 270.2705  89.8094 14.98331144 26826,6950.189,96.107,574.235,569.873,0.0
55291.0,STARLINK-5327,PAYLOAD,2023-07-09 02:25:09,14.9832984,0.0003159,69.9995,321.8019,268.2532,91.8265,-3.0165e-05,-4.53e-06,0.0,0 STARLINK-5327,1 55291U 23010Y   23190.10080466 -.00000453  00000-0 -30165-4 0  9991,2 55291  69.9995 321.8019 0003159 268.2532  91.8265 14.98329840 26974,6950.193,96.107,574.254,569.863,0.0
55291.0,STARLINK-5327,PAYLOAD,2023-07-10 02:27:10,14.98330655,0.000319,69.9996,319.2765,270.7634,89.316,-4.9977e-05,-6.89e-06,0.0,0 STARLINK-5327,1 55291U 23010Y   23191.10220566 -.00000689  00000-0 -49977-4 0  9991,2 55291  69.9996 319.2765 0003190 270.7634  89.3160 14.98330655 27120,6950.191,96.107,574.273,569.839,0.0
55291.0,STARLINK-5327,PAYLOAD,2023-07-10 18:28:30,14.98335188,0.0003328,69.9994,317.5934,268.6261,91.4517,6.9537e-05,7.37e-06,0.0,0 STARLINK-5327,1 55291U 23010Y   23191.76979862  .00000737  00000-0  69537-4 0  9999,2 55291  69.9994 317.5934 0003328 268.6261  91.4517 14.98335188 27229,6950.177,96.107,574.355,569.729,0.0
55291.0,STARLINK-5327,PAYLOAD,2023-07-11 18:30:31,14.9832917,0.0003158,69.9996,315.0683,268.9824,91.0973,7.2473e-05,7.72e-06,0.0,0 STARLINK-5327,1 55291U 23010Y   23192.77120184  .00000772  00000-0  72473-4 0  9998,2 55291  69.9996 315.0683 0003158 268.9824  91.0973 14.98329170 27376,6950.195,96.107,574.255,569.866,0.0
55291.0,STARLINK-5327,PAYLOAD,2023-07-12 18:32:32,14.9832583,0.0003046,69.9999,312.544,265.0824,94.9987,8.7367e-05,9.49e-06,0.0,0 STARLINK-5327,1 55291U 23010Y   23193.77260324  .00000949  00000-0  87367-4 0  9994,2 55291  69.9999 312.5440 0003046 265.0824  94.9987 14.98325830 27529,6950.206,96.107,574.188,569.954,0.0
55291.0,STARLINK-5327,PAYLOAD,2023-07-14 00:59:06,14.98325852,0.0002862,70.0006,309.3458,269.4892,90.5939,2.6276e-05,2.21e-06,0.0,0 STARLINK-5327,1 55291U 23010Y   23195.04104535  .00000221  00000-0  26276-4 0  9992,2 55291  70.0006 309.3458 0002862 269.4892  90.5939 14.98325852 27716,6950.206,96.107,574.06,570.082,0.0
55291.0,STARLINK-5327,PAYLOAD,2023-07-14 17:00:26,14.98337837,0.0003341,69.9991,307.6624,270.7735,89.3041,3.674e-05,3.45e-06,0.0,0 STARLINK-5327,1 55291U 23010Y   23195.70863610  .00000345  00000-0  36740-4 0  9995,2 55291  69.9991 307.6624 0003341 270.7735  89.3041 14.98337837 27813,6950.169,96.106,574.356,569.712,0.0
55291.0,STARLINK-5327,PAYLOAD,2023-07-15 01:01:06,14.98331673,0.0003196,69.9995,306.8209,268.2569,91.8224,1.8869e-05,1.32e-06,0.0,0 STARLINK-5327,1 55291U 23010Y   23196.04243961  .00000132  00000-0  18869-4 0  9990,2 55291  69.9995 306.8209 0003196 268.2569  91.8224 14.98331673 27860,6950.188,96.107,574.274,569.831,0.0
55291.0,STARLINK-5327,PAYLOAD,2023-07-15 12:14:03,14.98324392,0.0003162,69.9991,305.6413,266.6718,93.408,-5.1834e-05,-7.11e-06,0.0,0 STARLINK-5327,1 55291U 23010Y   23196.50976718 -.00000711  00000-0 -51834-4 0  9998,2 55291  69.9991 305.6413 0003162 266.6718  93.4080 14.98324392 27937,6950.21,96.107,574.273,569.878,0.0
55291.0,STARLINK-5327,PAYLOAD,2023-07-16 17:04:28,14.98332778,0.0003355,69.999,302.612,269.623,90.4544,1.2025e-05,5e-07,0.0,0 STARLINK-5327,1 55291U 23010Y   23197.71144184  .00000050  00000-0  12025-4 0  9999,2 55291  69.9990 302.6120 0003355 269.6230  90.4544 14.98332778 28114,6950.184,96.107,574.381,569.718,0.0
55291.0,STARLINK-5327,PAYLOAD,2023-07-17 17:06:28,14.98331991,0.00032,69.9991,300.0871,269.2872,90.7921,0.00022407,2.582e-05,0.0,0 STARLINK-5327,1 55291U 23010Y   23198.71283529  .00002582  00000-0  22407-3 0  9993,2 55291  69.9991 300.0871 0003200 269.2872  90.7921 14.98331991 28261,6950.187,96.107,574.276,569.828,0.0
55291.0,STARLINK-5327,PAYLOAD,2023-07-18 10:43:58,14.9832867,0.0003133,69.9999,298.2369,267.6012,92.4788,3.1572e-05,2.84e-06,0.0,0 STARLINK-5327,1 55291U 23010Y   23199.44720113  .00000284  00000-0  31572-4 0  9990,2 55291  69.9999 298.2369 0003133 267.6012  92.4788 14.98328670 28374,6950.197,96.107,574.24,569.885,0.0
55291.0,STARLINK-5327,PAYLOAD,2023-07-19 09:09:51,14.98323144,0.0002781,70.0003,295.8802,260.0051,100.0794,-0.00013475,-1.7e-05,0.0,0 STARLINK-5327,1 55291U 23010Y   23200.38184870 -.00001700  00000-0 -13475-3 0  9997,2 55291  70.0003 295.8802 0002781 260.0051 100.0794 14.98323144 28516,6950.214,96.107,574.012,570.146,0.0
55291.0,STARLINK-5327,PAYLOAD,2023-07-20 15:36:24,14.98332825,0.0003078,69.9995,292.6809,267.3984,92.6823,2.1141e-05,1.59e-06,0.0,0 STARLINK-5327,1 55291U 23010Y   23201.65027940  .00000159  00000-0  21141-4 0  9997,2 55291  69.9995 292.6809 0003078 267.3984  92.6823 14.98332825 28706,6950.184,96.107,574.188,569.91,0.0
55291.0,STARLINK-5327,PAYLOAD,2023-07-24 04:31:31,14.98329542,0.0003313,69.9985,283.7598,268.725,91.353,9.937e-05,1.093e-05,0.0,0 STARLINK-5327,1 55291U 23010Y   23205.18855584  .00001093  00000-0  99370-4 0  9999,2 55291  69.9985 283.7598 0003313 268.7250  91.3530 14.98329542 29540,6950.194,96.107,574.362,569.757,0.0
55291.0,STARLINK-5327,PAYLOAD,2023-07-25 10:58:05,14.98323525,0.0003167,69.9993,280.563,261.9814,98.0985,-5.8666e-05,-7.93e-06,0.0,0 STARLINK-5327,1 55291U 23010Y   23206.45700240 -.00000793  00000-0 -58666-4 0  9999,2 55291  69.9993 280.5630 0003167 261.9814  98.0985 14.98323525 29429,6950.213,96.107,574.279,569.877,0.0
